{"type": "FeatureCollection", "features": [{"type": "Feature", "properties": {"norad_id": 2807, "name": "OPS 7218 (TRANSIT 16)", "group": "nnss", "lat": -89.0956262373228, "lon": -165.06127061637372, "alt_km": 1093.5663691701493, "timestamp": "2025-12-21T03:56:51.105467+00:00", "meta": {"OBJECT_NAME": "OPS 7218 (TRANSIT 16)", "OBJECT_ID": "1967-048A", "EPOCH": "2025-12-20T13:00:34.079040", "MEAN_MOTION": 13.50723861, "ECCENTRICITY": 0.0022146, "INCLINATION": 89.6731, "RA_OF_ASC_NODE": 353.7574, "ARG_OF_PERICENTER": 93.2861, "MEAN_ANOMALY": 31.0798, "EPHEMERIS_TYPE": 0, "CLASSIFICATION_TYPE": "U", "NORAD_CAT_ID": 2807, "ELEMENT_SET_NO": 999, "REV_AT_EPOCH": 88381, "BSTAR": 0.00014697, "MEAN_MOTION_DOT": 1.05e-06, "MEAN_MOTION_DDOT": 0}, "tle": {"line1": "1 02807U 67048A   25354.54206110  .00000105  00000+0  14697-3 0  9995", "line2": "2 02807  89.6731 353.7574 0022146  93.2861  31.0798 13.50723861883813"}}, "geometry": {"type": "Point", "coordinates": [-165.06127061637372, -89.0956262373228]}}, {"type": "Feature", "properties": {"norad_id": 2965, "name": "OPS 4947 (TRANSIT 17)", "group": "nnss", "lat": 56.06872988506477, "lon": 24.910526487252064, "alt_km": 1085.327303764342, "timestamp": "2025-12-21T03:56:51.105487+00:00", "meta": {"OBJECT_NAME": "OPS 4947 (TRANSIT 17)", "OBJECT_ID": "1967-092A", "EPOCH": "2025-12-20T19:39:31.567104", "MEAN_MOTION": 13.53455563, "ECCENTRICITY": 0.004675, "INCLINATION": 89.2487, "RA_OF_ASC_NODE": 23.8193, "ARG_OF_PERICENTER": 210.4496, "MEAN_ANOMALY": 324.1597, "EPHEMERIS_TYPE": 0, "CLASSIFICATION_TYPE": "U", "NORAD_CAT_ID": 2965, "ELEMENT_SET_NO": 999, "REV_AT_EPOCH": 87206, "BSTAR": 0.00018418, "MEAN_MOTION_DOT": 1.36e-06, "MEAN_MOTION_DDOT": 0}, "tle": {"line1": "1 02965U 67092A   25354.81911536  .00000136  00000+0  18418-3 0  9993", "line2": "2 02965  89.2487  23.8193 0046750 210.4496 324.1597 13.53455563872060"}}, "geometry": {"type": "Point", "coordinates": [24.910526487252064, 56.06872988506477]}}, {"type": "Feature", "properties": {"norad_id": 3133, "name": "OPS 7034 (TRANSIT 18)", "group": "nnss", "lat": 31.491113029923554, "lon": 93.68022576762002, "alt_km": 1009.2805347061085, "timestamp": "2025-12-21T03:56:51.105498+00:00", "meta": {"OBJECT_NAME": "OPS 7034 (TRANSIT 18)", "OBJECT_ID": "1968-012A", "EPOCH": "2025-12-20T18:36:05.578848", "MEAN_MOTION": 13.51567467, "ECCENTRICITY": 0.0074622, "INCLINATION": 90.0284, "RA_OF_ASC_NODE": 273.6617, "ARG_OF_PERICENTER": 145.9806, "MEAN_ANOMALY": 268.7524, "EPHEMERIS_TYPE": 0, "CLASSIFICATION_TYPE": "U", "NORAD_CAT_ID": 3133, "ELEMENT_SET_NO": 999, "REV_AT_EPOCH": 57027, "BSTAR": 0.000159, "MEAN_MOTION_DOT": 1.15e-06, "MEAN_MOTION_DDOT": 0}, "tle": {"line1": "1 03133U 68012A   25354.77506457  .00000115  00000+0  15900-3 0  9991", "line2": "2 03133  90.0284 273.6617 0074622 145.9806 268.7524 13.51567467570271"}}, "geometry": {"type": "Point", "coordinates": [93.68022576762002, 31.491113029923554]}}, {"type": "Feature", "properties": {"norad_id": 4507, "name": "NNSS 19 (TRANSIT 19)", "group": "nnss", "lat": 68.50244390244184, "lon": 54.55253575716999, "alt_km": 1177.4694029154152, "timestamp": "2025-12-21T03:56:51.105509+00:00", "meta": {"OBJECT_NAME": "NNSS 19 (TRANSIT 19)", "OBJECT_ID": "1970-067A", "EPOCH": "2025-12-20T14:56:41.152992", "MEAN_MOTION": 13.51316588, "ECCENTRICITY": 0.0170239, "INCLINATION": 90.0051, "RA_OF_ASC_NODE": 234.5393, "ARG_OF_PERICENTER": 270.3112, "MEAN_ANOMALY": 87.8534, "EPHEMERIS_TYPE": 0, "CLASSIFICATION_TYPE": "U", "NORAD_CAT_ID": 4507, "ELEMENT_SET_NO": 999, "REV_AT_EPOCH": 72328, "BSTAR": 0.00013508, "MEAN_MOTION_DOT": 1.04e-06, "MEAN_MOTION_DDOT": 0}, "tle": {"line1": "1 04507U 70067A   25354.62269853  .00000104  00000+0  13508-3 0  9990", "line2": "2 04507  90.0051 234.5393 0170239 270.3112  87.8534 13.51316588723288"}}, "geometry": {"type": "Point", "coordinates": [54.55253575716999, 68.50244390244184]}}, {"type": "Feature", "properties": {"norad_id": 6909, "name": "NNSS 20 (TRANSIT 20)", "group": "nnss", "lat": 74.88333045785095, "lon": -104.53944648160724, "alt_km": 879.8921753411942, "timestamp": "2025-12-21T03:56:51.105519+00:00", "meta": {"OBJECT_NAME": "NNSS 20 (TRANSIT 20)", "OBJECT_ID": "1973-081A", "EPOCH": "2025-12-20T18:50:19.223808", "MEAN_MOTION": 13.71438181, "ECCENTRICITY": 0.0156401, "INCLINATION": 89.8562, "RA_OF_ASC_NODE": 254.9336, "ARG_OF_PERICENTER": 54.4896, "MEAN_ANOMALY": 307.0741, "EPHEMERIS_TYPE": 0, "CLASSIFICATION_TYPE": "U", "NORAD_CAT_ID": 6909, "ELEMENT_SET_NO": 999, "REV_AT_EPOCH": 80471, "BSTAR": 0.00023365, "MEAN_MOTION_DOT": 2.41e-06, "MEAN_MOTION_DDOT": 0}, "tle": {"line1": "1 06909U 73081A   25354.78494472  .00000241  00000+0  23365-3 0  9995", "line2": "2 06909  89.8562 254.9336 0156401  54.4896 307.0741 13.71438181804718"}}, "geometry": {"type": "Point", "coordinates": [-104.53944648160724, 74.88333045785095]}}, {"type": "Feature", "properties": {"norad_id": 10457, "name": "TRANSAT", "group": "nnss", "lat": 45.058781497957895, "lon": 78.65176716257704, "alt_km": 1082.0787363222507, "timestamp": "2025-12-21T03:56:51.105529+00:00", "meta": {"OBJECT_NAME": "TRANSAT", "OBJECT_ID": "1977-106A", "EPOCH": "2025-12-20T04:51:30.137760", "MEAN_MOTION": 13.48944672, "ECCENTRICITY": 0.00261, "INCLINATION": 89.648, "RA_OF_ASC_NODE": 78.3329, "ARG_OF_PERICENTER": 168.1289, "MEAN_ANOMALY": 248.1407, "EPHEMERIS_TYPE": 0, "CLASSIFICATION_TYPE": "U", "NORAD_CAT_ID": 10457, "ELEMENT_SET_NO": 999, "REV_AT_EPOCH": 36844, "BSTAR": 0.00011685506, "MEAN_MOTION_DOT": 8.4e-07, "MEAN_MOTION_DDOT": 0}, "tle": {"line1": "1 10457U 77106A   25354.20243215  .00000084  00000+0  11686-3 0  9992", "line2": "2 10457  89.6480  78.3329 0026100 168.1289 248.1407 13.48944672368449"}}, "geometry": {"type": "Point", "coordinates": [78.65176716257704, 45.058781497957895]}}, {"type": "Feature", "properties": {"norad_id": 12458, "name": "NOVA 1", "group": "nnss", "lat": -69.66700586181261, "lon": -88.3361050603068, "alt_km": 1191.2307376480321, "timestamp": "2025-12-21T03:56:51.105539+00:00", "meta": {"OBJECT_NAME": "NOVA 1", "OBJECT_ID": "1981-044A", "EPOCH": "2025-12-20T18:13:37.876224", "MEAN_MOTION": 13.23279176, "ECCENTRICITY": 0.0015854, "INCLINATION": 89.8527, "RA_OF_ASC_NODE": 91.2719, "ARG_OF_PERICENTER": 84.2987, "MEAN_ANOMALY": 36.9916, "EPHEMERIS_TYPE": 0, "CLASSIFICATION_TYPE": "U", "NORAD_CAT_ID": 12458, "ELEMENT_SET_NO": 999, "REV_AT_EPOCH": 15292, "BSTAR": 8.1809e-05, "MEAN_MOTION_DOT": 4.4e-07, "MEAN_MOTION_DDOT": 0}, "tle": {"line1": "1 12458U 81044A   25354.75946616  .00000044  00000+0  81809-4 0  9997", "line2": "2 12458  89.8527  91.2719 0015854  84.2987  36.9916 13.23279176152925"}}, "geometry": {"type": "Point", "coordinates": [-88.3361050603068, -69.66700586181261]}}, {"type": "Feature", "properties": {"norad_id": 15362, "name": "NOVA 3", "group": "nnss", "lat": 64.6994770797866, "lon": -99.10772359653832, "alt_km": 1188.9936150340754, "timestamp": "2025-12-21T03:56:51.105562+00:00", "meta": {"OBJECT_NAME": "NOVA 3", "OBJECT_ID": "1984-110A", "EPOCH": "2025-12-20T18:53:57.522048", "MEAN_MOTION": 13.23045473, "ECCENTRICITY": 0.0029997, "INCLINATION": 90.1221, "RA_OF_ASC_NODE": 80.6294, "ARG_OF_PERICENTER": 308.824, "MEAN_ANOMALY": 171.7165, "EPHEMERIS_TYPE": 0, "CLASSIFICATION_TYPE": "U", "NORAD_CAT_ID": 15362, "ELEMENT_SET_NO": 999, "REV_AT_EPOCH": 98805, "BSTAR": 0.00011296, "MEAN_MOTION_DOT": 5.6e-07, "MEAN_MOTION_DDOT": 0}, "tle": {"line1": "1 15362U 84110A   25354.78747132  .00000056  00000+0  11296-3 0  9991", "line2": "2 15362  90.1221  80.6294 0029997 308.8240 171.7165 13.23045473988054"}}, "geometry": {"type": "Point", "coordinates": [-99.10772359653832, 64.6994770797866]}}, {"type": "Feature", "properties": {"norad_id": 15935, "name": "OSCAR 30", "group": "nnss", "lat": -51.10658557789318, "lon": -80.22038453286319, "alt_km": 1256.0989777176674, "timestamp": "2025-12-21T03:56:51.105572+00:00", "meta": {"OBJECT_NAME": "OSCAR 30", "OBJECT_ID": "1985-066A", "EPOCH": "2025-12-20T20:09:09.954720", "MEAN_MOTION": 13.36079432, "ECCENTRICITY": 0.0169171, "INCLINATION": 90.1655, "RA_OF_ASC_NODE": 99.9796, "ARG_OF_PERICENTER": 61.2952, "MEAN_ANOMALY": 48.1693, "EPHEMERIS_TYPE": 0, "CLASSIFICATION_TYPE": "U", "NORAD_CAT_ID": 15935, "ELEMENT_SET_NO": 999, "REV_AT_EPOCH": 96561, "BSTAR": 0.00010448, "MEAN_MOTION_DOT": 6.8e-07, "MEAN_MOTION_DDOT": 0}, "tle": {"line1": "1 15935U 85066A   25354.83969855  .00000068  00000+0  10448-3 0  9993", "line2": "2 15935  90.1655  99.9796 0169171  61.2952  48.1693 13.36079432965616"}}, "geometry": {"type": "Point", "coordinates": [-80.22038453286319, -51.10658557789318]}}, {"type": "Feature", "properties": {"norad_id": 15936, "name": "OSCAR 24", "group": "nnss", "lat": -59.905283426551286, "lon": 92.76358274683638, "alt_km": 1206.534969670015, "timestamp": "2025-12-21T03:56:51.105583+00:00", "meta": {"OBJECT_NAME": "OSCAR 24", "OBJECT_ID": "1985-066B", "EPOCH": "2025-12-20T19:49:13.393344", "MEAN_MOTION": 13.35936837, "ECCENTRICITY": 0.0170283, "INCLINATION": 90.1791, "RA_OF_ASC_NODE": 92.4484, "ARG_OF_PERICENTER": 67.7638, "MEAN_ANOMALY": 46.3232, "EPHEMERIS_TYPE": 0, "CLASSIFICATION_TYPE": "U", "NORAD_CAT_ID": 15936, "ELEMENT_SET_NO": 999, "REV_AT_EPOCH": 96751, "BSTAR": 0.00010513, "MEAN_MOTION_DOT": 6.8e-07, "MEAN_MOTION_DDOT": 0}, "tle": {"line1": "1 15936U 85066B   25354.82584946  .00000068  00000+0  10513-3 0  9990", "line2": "2 15936  90.1791  92.4484 0170283  67.7638  46.3232 13.35936837967518"}}, "geometry": {"type": "Point", "coordinates": [92.76358274683638, -59.905283426551286]}}]}